[{"OBJECT_NAME":"LEMUR-2-BALTO","OBJECT_ID":"2025-052BH","EPOCH":"2026-03-09T16:40:42.002112","MEAN_MOTION":14.98934076,"ECCENTRICITY":0.00022794,"INCLINATION":97.6978,"RA_OF_ASC_NODE":323.5166,"ARG_OF_PERICENTER":359.2852,"MEAN_ANOMALY":0.8367,"EPHEMERIS_TYPE":0,"CLASSIFICATION_TYPE":"U","NORAD_CAT_ID":63395,"ELEMENT_SET_NO":999,"REV_AT_EPOCH":5385,"BSTAR":0.00063455958,"MEAN_MOTION_DOT":7.621e-5,"MEAN_MOTION_DDOT":0},{"OBJECT_NAME":"COSMOS 252 DEB","OBJECT_ID":"1968-097H","EPOCH":"2026-03-09T15:55:45.465888","MEAN_MOTION":13.08433626,"ECCENTRICITY":0.09089174,"INCLINATION":62.3171,"RA_OF_ASC_NODE":165.0158,"ARG_OF_PERICENTER":153.052,"MEAN_ANOMALY":212.0845,"EPHEMERIS_TYPE":0,"CLASSIFICATION_TYPE":"U","NORAD_CAT_ID":3555,"ELEMENT_SET_NO":999,"REV_AT_EPOCH":72378,"BSTAR":0.0001690308,"MEAN_MOTION_DOT":3.69e-6,"MEAN_MOTION_DDOT":0}]
